GLOBALSTAR M079 [+]     
1 37188U 10054A   22012.12361212 -.00000094  00000+0  55252-4 0  9998
2 37188  52.0059 351.2753 0000432  51.6335  27.3787 12.62267964519013
GLOBALSTAR M074 [+]     
1 37189U 10054B   22012.23437851 -.00000102  00000+0  10886-4 0  9998
2 37189  52.0036 350.4564 0000422  44.0096  57.9707 12.62266290519022
GLOBALSTAR M076 [+]     
1 37190U 10054C   22012.26105038 -.00000111  00000+0 -39258-4 0  9997
2 37190  52.0053 350.4300 0000804  80.6513  23.6796 12.62255197519038
GLOBALSTAR M077 [+]     
1 37191U 10054D   22012.57946883 -.00000092  00000+0  62919-4 0  9990
2 37191  52.0085 305.9593 0000632  58.2756 112.7863 12.62265593519825
GLOBALSTAR M075 [+]     
1 37192U 10054E   22011.81360029 -.00000100  00000+0  18997-4 0  9996
2 37192  51.9964  34.7416 0000429  93.1830  77.7707 12.62268534517841
GLOBALSTAR M073 [+]     
1 37193U 10054F   22012.20451171 -.00000093  00000+0  61755-4 0  9991
2 37193  52.0071 306.4222 0000632  59.8199  87.3791 12.62268872519779
GLOBALSTAR M083 [+]     
1 37739U 11033A   22012.13278718 -.00000099  00000+0  28769-4 0  9995
2 37739  51.9846 257.0824 0000977  53.5606  67.9417 12.62265517489091
GLOBALSTAR M088 [+]     
1 37740U 11033B   22011.68666601 -.00000096  00000+0  43545-4 0  9994
2 37740  51.9712 164.9831 0001174  86.2935 287.0037 12.62270508484226
GLOBALSTAR M091 [+]     
1 37741U 11033C   22011.62081521 -.00000117  00000+0 -74111-4 0  9999
2 37741  51.9997 126.4956 0000882  99.4581 274.7050 12.62269312485265
GLOBALSTAR M085 [+]     
1 37742U 11033D   22011.55795678 -.00000114  00000+0 -59381-4 0  9996
2 37742  51.9877  78.8348 0000602 118.5646  30.4256 12.62263512485994
GLOBALSTAR M081 [+]     
1 37743U 11033E   22012.50530373 -.00000100  00000+0  18702-4 0  9998
2 37743  51.9970  77.9676 0000707 107.8397 266.1887 12.62267844486152
GLOBALSTAR M089 [+]     
1 37744U 11033F   22012.24206578 -.00000089  00000+0  83129-4 0  9998
2 37744  51.9948  33.2301 0000572 141.4363 297.4434 12.62263365486839
GLOBALSTAR M084 [+]     
1 38040U 11080A   22012.11580803 -.00000093  00000+0  60891-4 0  9998
2 38040  51.9996 260.2453 0000949  79.4176  84.5750 12.62270069464822
GLOBALSTAR M080 [+]     
1 38041U 11080B   22011.45754279 -.00000096  00000+0  44819-4 0  9990
2 38041  52.0052 263.4167 0001013  79.4866  91.0431 12.62266001464587
GLOBALSTAR M082 [+]     
1 38042U 11080C   22012.02391875 -.00000085  00000+0  10236-3 0  9997
2 38042  52.0047 217.0055 0000938  59.1817 106.2651 12.62268190465539
GLOBALSTAR M092 [+]     
1 38043U 11080D   22011.60291821 -.00000106  00000+0 -13497-4 0  9999
2 38043  52.0097 308.5947 0000419  92.7531  78.8650 12.62270145463973
GLOBALSTAR M090 [+]     
1 38044U 11080E   22012.49136201 -.00000086  00000+0  97546-4 0  9991
2 38044  51.9856 211.0025 0001151  73.8779 298.2994 12.62266180465580
GLOBALSTAR M086 [+]     
1 38045U 11080F   22011.90049730 -.00000078  00000+0  14451-3 0  9991
2 38045  51.9868 213.2556 0002399  78.9373   6.9569 12.62268730465415
GLOBALSTAR M097 [+]     
1 39072U 13005A   22012.46227309 -.00000112  00000+0 -47345-4 0  9992
2 39072  52.0043 124.8140 0001026  90.9830 269.1155 12.62261556412816
GLOBALSTAR M093 [+]     
1 39073U 13005B   22011.56493785 -.00000107  00000+0 -17891-4 0  9993
2 39073  51.9808 122.8565 0001018  88.0915 272.0068 12.62268032412571
GLOBALSTAR M094 [+]     
1 39074U 13005C   22012.43608617 -.00000104  00000+0 -15780-5 0  9996
2 39074  51.9974  33.3368 0000373 100.7213 259.3695 12.62264903414310
GLOBALSTAR M096 [+]     
1 39075U 13005D   22012.44948035 -.00000118  00000+0 -81266-4 0  9995
2 39075  52.0084  80.8326 0000714 105.8428 254.2517 12.62266294413567
GLOBALSTAR M078 [+]     
1 39076U 13005E   22011.86848025 -.00000092  00000+0  67174-4 0  9991
2 39076  51.9851 168.8115 0000266  39.4548 320.6338 12.62267476411973
GLOBALSTAR M095 [+]     
1 39077U 13005F   22011.73675857 -.00000095  00000+0  50604-4 0  9992
2 39077  51.9779 167.0336 0000785  64.5981 295.4966 12.62260193411600
